{"type": "FeatureCollection", "features": [ {"type": "Feature", "properties": {"norad_id": 43566, "name": "GSAT0219 (GALILEO 23)", "group": "gnss", "lat": -56.21211774952329, "lon": -87.22805825633979, "alt_km": 23211.003713620546, "timestamp": "2025-12-03T10:52:57.694024+00:00", "meta": {"OBJECT_NAME": "GSAT0219 (GALILEO 23)", "OBJECT_ID": "2018-060C", "EPOCH": "2025-11-30T01:35:38.037408", "MEAN_MOTION": 1.70475682, "ECCENTRICITY": 0.00057799, "INCLINATION": 57.2334, "RA_OF_ASC_NODE": 347.165, "ARG_OF_PERICENTER": 285.7575, "MEAN_ANOMALY": 74.2225, "EPHEMERIS_TYPE": 0, "CLASSIFICATION_TYPE": "U", "NORAD_CAT_ID": 43566, "ELEMENT_SET_NO": 999, "REV_AT_EPOCH": 4579, "BSTAR": 0, "MEAN_MOTION_DOT": -5.6e-07, "MEAN_MOTION_DDOT": 0}, "tle": {"line1": "1 43566U 18060C   25334.06641247 -.00000056  00000+0  00000+0 0  9996", "line2": "2 43566  57.2334 347.1650 0005779 285.7575  74.2225  1.70475682 45790"}}, "geometry": {"type": "Point", "coordinates": [-87.22805825633979, -56.21211774952329]}}, {"type": "Feature", "properties": {"norad_id": 43567, "name": "GSAT0220 (GALILEO 24)", "group": "gnss", "lat": 30.35616923142372, "lon": 144.9150257755305, "alt_km": 23231.716021887794, "timestamp": "2025-12-03T10:52:57.694037+00:00", "meta": {"OBJECT_NAME": "GSAT0220 (GALILEO 24)", "OBJECT_ID": "2018-060D", "EPOCH": "2025-12-01T11:03:06.852672", "MEAN_MOTION": 1.70475407, "ECCENTRICITY": 0.00061058, "INCLINATION": 57.2328, "RA_OF_ASC_NODE": 347.128, "ARG_OF_PERICENTER": 280.6549, "MEAN_ANOMALY": 79.3184, "EPHEMERIS_TYPE": 0, "CLASSIFICATION_TYPE": "U", "NORAD_CAT_ID": 43567, "ELEMENT_SET_NO": 999, "REV_AT_EPOCH": 4580, "BSTAR": 0, "MEAN_MOTION_DOT": -5.9e-07, "MEAN_MOTION_DDOT": 0}, "tle": {"line1": "1 43567U 18060D   25335.46049598 -.00000059  00000+0  00000+0 0  9996", "line2": "2 43567  57.2328 347.1280 0006105 280.6549  79.3184  1.70475407 45809"}}, "geometry": {"type": "Point", "coordinates": [144.9150257755305, 30.35616923142372]}}, {"type": "Feature", "properties": {"norad_id": 43581, "name": "BEIDOU-3 M5 (C23)", "group": "gnss", "lat": -34.71003080887399, "lon": 39.098104362205795, "alt_km": 21535.974838005503, "timestamp": "2025-12-03T10:52:57.694049+00:00", "meta": {"OBJECT_NAME": "BEIDOU-3 M5 (C23)", "OBJECT_ID": "2018-062A", "EPOCH": "2025-11-30T23:17:32.661024", "MEAN_MOTION": 1.8622853, "ECCENTRICITY": 0.0002124, "INCLINATION": 54.0891, "RA_OF_ASC_NODE": 189.0442, "ARG_OF_PERICENTER": 349.7703, "MEAN_ANOMALY": 10.3183, "EPHEMERIS_TYPE": 0, "CLASSIFICATION_TYPE": "U", "NORAD_CAT_ID": 43581, "ELEMENT_SET_NO": 999, "REV_AT_EPOCH": 4994, "BSTAR": 0, "MEAN_MOTION_DOT": 1.17e-06, "MEAN_MOTION_DDOT": 0}, "tle": {"line1": "1 43581U 18062A   25334.97051691  .00000117  00000+0  00000+0 0  9990", "line2": "2 43581  54.0891 189.0442 0002124 349.7703  10.3183  1.86228530 49947"}}, "geometry": {"type": "Point", "coordinates": [39.098104362205795, -34.71003080887399]}}, {"type": "Feature", "properties": {"norad_id": 43582, "name": "BEIDOU-3 M6 (C24)", "group": "gnss", "lat": -33.934314826940415, "lon": 159.77674881001192, "alt_km": 21532.013015885917, "timestamp": "2025-12-03T10:52:57.694062+00:00", "meta": {"OBJECT_NAME": "BEIDOU-3 M6 (C24)", "OBJECT_ID": "2018-062B", "EPOCH": "2025-11-29T18:14:01.707936", "MEAN_MOTION": 1.86229617, "ECCENTRICITY": 0.00076529, "INCLINATION": 54.0888, "RA_OF_ASC_NODE": 189.0746, "ARG_OF_PERICENTER": 45.4041, "MEAN_ANOMALY": 314.7474, "EPHEMERIS_TYPE": 0, "CLASSIFICATION_TYPE": "U", "NORAD_CAT_ID": 43582, "ELEMENT_SET_NO": 999, "REV_AT_EPOCH": 4992, "BSTAR": 0, "MEAN_MOTION_DOT": 1.07e-06, "MEAN_MOTION_DDOT": 0}, "tle": {"line1": "1 43582U 18062B   25333.75974199  .00000107  00000+0  00000+0 0  9992", "line2": "2 43582  54.0888 189.0746 0007652  45.4041 314.7474  1.86229617 49926"}}, "geometry": {"type": "Point", "coordinates": [159.77674881001192, -33.934314826940415]}}, {"type": "Feature", "properties": {"norad_id": 43602, "name": "BEIDOU-3 M12 (C26)", "group": "gnss", "lat": -1.473857701164051, "lon": -173.37740807212214, "alt_km": 21509.935980882106, "timestamp": "2025-12-03T10:52:57.694073+00:00", "meta": {"OBJECT_NAME": "BEIDOU-3 M12 (C26)", "OBJECT_ID": "2018-067A", "EPOCH": "2025-12-02T09:10:25.264704", "MEAN_MOTION": 1.86227619, "ECCENTRICITY": 0.00091452, "INCLINATION": 54.1831, "RA_OF_ASC_NODE": 187.7149, "ARG_OF_PERICENTER": 40.4724, "MEAN_ANOMALY": 319.6904, "EPHEMERIS_TYPE": 0, "CLASSIFICATION_TYPE": "U", "NORAD_CAT_ID": 43602, "ELEMENT_SET_NO": 999, "REV_AT_EPOCH": 4945, "BSTAR": 0, "MEAN_MOTION_DOT": 1.22e-06, "MEAN_MOTION_DDOT": 0}, "tle": {"line1": "1 43602U 18067A   25336.38223686  .00000122  00000+0  00000+0 0  9997", "line2": "2 43602  54.1831 187.7149 0009145  40.4724 319.6904  1.86227619 49452"}}, "geometry": {"type": "Point", "coordinates": [-173.37740807212214, -1.473857701164051]}}, {"type": "Feature", "properties": {"norad_id": 43603, "name": "BEIDOU-3 M11 (C25)", "group": "gnss", "lat": -54.11496042768319, "lon": 94.29546244936881, "alt_km": 21543.81604791631, "timestamp": "2025-12-03T10:52:57.694087+00:00", "meta": {"OBJECT_NAME": "BEIDOU-3 M11 (C25)", "OBJECT_ID": "2018-067B", "EPOCH": "2025-12-01T23:30:51.046272", "MEAN_MOTION": 1.86227122, "ECCENTRICITY": 0.0005564, "INCLINATION": 54.1806, "RA_OF_ASC_NODE": 187.6926, "ARG_OF_PERICENTER": 35.9792, "MEAN_ANOMALY": 324.1527, "EPHEMERIS_TYPE": 0, "CLASSIFICATION_TYPE": "U", "NORAD_CAT_ID": 43603, "ELEMENT_SET_NO": 999, "REV_AT_EPOCH": 4947, "BSTAR": 0, "MEAN_MOTION_DOT": 1.23e-06, "MEAN_MOTION_DDOT": 0}, "tle": {"line1": "1 43603U 18067B   25335.97975748  .00000123  00000+0  00000+0 0  9996", "line2": "2 43603  54.1806 187.6926 0005564  35.9792 324.1527  1.86227122 49475"}}, "geometry": {"type": "Point", "coordinates": [94.29546244936881, -54.11496042768319]}}, {"type": "Feature", "properties": {"norad_id": 43622, "name": "BEIDOU-3 M13 (C32)", "group": "gnss", "lat": -47.893021643378425, "lon": 21.985201079143163, "alt_km": 21517.93713250067, "timestamp": "2025-12-03T10:52:57.694098+00:00", "meta": {"OBJECT_NAME": "BEIDOU-3 M13 (C32)", "OBJECT_ID": "2018-072A", "EPOCH": "2025-12-01T22:28:14.583360", "MEAN_MOTION": 1.8623073, "ECCENTRICITY": 0.00055911, "INCLINATION": 56.4497, "RA_OF_ASC_NODE": 69.1783, "ARG_OF_PERICENTER": 298.7186, "MEAN_ANOMALY": 61.2282, "EPHEMERIS_TYPE": 0, "CLASSIFICATION_TYPE": "U", "NORAD_CAT_ID": 43622, "ELEMENT_SET_NO": 999, "REV_AT_EPOCH": 4898, "BSTAR": 0, "MEAN_MOTION_DOT": -4.4e-07, "MEAN_MOTION_DDOT": 0}, "tle": {"line1": "1 43622U 18072A   25335.93627990 -.00000044  00000+0  00000+0 0  9995", "line2": "2 43622  56.4497  69.1783 0005591 298.7186  61.2282  1.86230730 48989"}}, "geometry": {"type": "Point", "coordinates": [21.985201079143163, -47.893021643378425]}}, {"type": "Feature", "properties": {"norad_id": 43623, "name": "BEIDOU-3 M14 (C33)", "group": "gnss", "lat": 22.552269709207458, "lon": 85.09217035476253, "alt_km": 21520.114776805956, "timestamp": "2025-12-03T10:52:57.694109+00:00", "meta": {"OBJECT_NAME": "BEIDOU-3 M14 (C33)", "OBJECT_ID": "2018-072B", "EPOCH": "2025-12-01T19:14:30.937344", "MEAN_MOTION": 1.86230707, "ECCENTRICITY": 0.00030488, "INCLINATION": 56.4513, "RA_OF_ASC_NODE": 69.1766, "ARG_OF_PERICENTER": 335.7773, "MEAN_ANOMALY": 24.2115, "EPHEMERIS_TYPE": 0, "CLASSIFICATION_TYPE": "U", "NORAD_CAT_ID": 43623, "ELEMENT_SET_NO": 999, "REV_AT_EPOCH": 4897, "BSTAR": 0, "MEAN_MOTION_DOT": -4.3e-07, "MEAN_MOTION_DDOT": 0}, "tle": {"line1": "1 43623U 18072B   25335.80174696 -.00000043  00000+0  00000+0 0  9991", "line2": "2 43623  56.4513  69.1766 0003048 335.7773  24.2115  1.86230707 48976"}}, "geometry": {"type": "Point", "coordinates": [85.09217035476253, 22.552269709207458]}}, {"type": "Feature", "properties": {"norad_id": 43647, "name": "BEIDOU-3 M16 (C35)", "group": "gnss", "lat": -52.7127556668734, "lon": -124.07355884554933, "alt_km": 21536.00333883013, "timestamp": "2025-12-03T10:52:57.694121+00:00", "meta": {"OBJECT_NAME": "BEIDOU-3 M16 (C35)", "OBJECT_ID": "2018-078A", "EPOCH": "2025-12-03T00:48:25.625088", "MEAN_MOTION": 1.86232114, "ECCENTRICITY": 0.0006975, "INCLINATION": 54.271, "RA_OF_ASC_NODE": 306.8606, "ARG_OF_PERICENTER": 18.45, "MEAN_ANOMALY": 341.5609, "EPHEMERIS_TYPE": 0, "CLASSIFICATION_TYPE": "U", "NORAD_CAT_ID": 43647, "ELEMENT_SET_NO": 999, "REV_AT_EPOCH": 4850, "BSTAR": 0, "MEAN_MOTION_DOT": -6.5e-07, "MEAN_MOTION_DDOT": 0}, "tle": {"line1": "1 43647U 18078A   25337.03362992 -.00000065  00000+0  00000+0 0  9992", "line2": "2 43647  54.2710 306.8606 0006975  18.4500 341.5609  1.86232114 48502"}}, "geometry": {"type": "Point", "coordinates": [-124.07355884554933, -52.7127556668734]}}, {"type": "Feature", "properties": {"norad_id": 43648, "name": "BEIDOU-3 M15 (C34)", "group": "gnss", "lat": -12.046779782748041, "lon": 135.65992259845007, "alt_km": 21539.665980220092, "timestamp": "2025-12-03T10:52:57.694133+00:00", "meta": {"OBJECT_NAME": "BEIDOU-3 M15 (C34)", "OBJECT_ID": "2018-078B", "EPOCH": "2025-12-01T00:21:40.976640", "MEAN_MOTION": 1.86232, "ECCENTRICITY": 0.0003569, "INCLINATION": 54.2686, "RA_OF_ASC_NODE": 306.9322, "ARG_OF_PERICENTER": 17.0419, "MEAN_ANOMALY": 342.9634, "EPHEMERIS_TYPE": 0, "CLASSIFICATION_TYPE": "U", "NORAD_CAT_ID": 43648, "ELEMENT_SET_NO": 999, "REV_AT_EPOCH": 4848, "BSTAR": 0, "MEAN_MOTION_DOT": -5.6e-07, "MEAN_MOTION_DDOT": 0}, "tle": {"line1": "1 43648U 18078B   25335.01505760 -.00000056  00000+0  00000+0 0  9991", "line2": "2 43648  54.2686 306.9322 0003569  17.0419 342.9634  1.86232000 48485"}}, "geometry": {"type": "Point", "coordinates": [135.65992259845007, -12.046779782748041]}}]}